{
"type": "FeatureCollection",
"name": "bushwick_far_gap",
"crs": { "type": "name", "properties": { "name": "urn:ogc:def:crs:OGC:1.3:CRS84" } },
"features": [
{ "type": "Feature", "properties": { "GEOID": "360470403001", "far_gap": 0.85995049504950494, "lot_count": 202 }, "geometry": { "type": "Polygon", "coordinates": [ [ [ -73.909275, 40.682235 ], [ -73.907878, 40.683657 ], [ -73.908629, 40.684086 ], [ -73.907183, 40.685561 ], [ -73.905738, 40.68704 ], [ -73.905473, 40.686893 ], [ -73.905343, 40.68682 ], [ -73.904969, 40.6866 ], [ -73.904494, 40.686299 ], [ -73.905433, 40.68366 ], [ -73.905787, 40.683397 ], [ -73.906376, 40.682802 ], [ -73.907126, 40.68323 ], [ -73.908517, 40.681804 ], [ -73.90886, 40.681994 ], [ -73.909055, 40.682105 ], [ -73.909275, 40.682235 ] ] ] } },
{ "type": "Feature", "properties": { "GEOID": "360470405002", "far_gap": 0.4647126436781609, "lot_count": 87 }, "geometry": { "type": "Polygon", "coordinates": [ [ [ -73.908517, 40.681804 ], [ -73.907126, 40.68323 ], [ -73.906376, 40.682802 ], [ -73.905758, 40.68245 ], [ -73.905641, 40.682383 ], [ -73.90572, 40.682302 ], [ -73.907018, 40.680948 ], [ -73.907771, 40.681377 ], [ -73.908517, 40.681804 ] ] ] } },
{ "type": "Feature", "properties": { "GEOID": "360470407001", "far_gap": 1.17, "lot_count": 4 }, "geometry": { "type": "Polygon", "coordinates": [ [ [ -73.905433, 40.68366 ], [ -73.904494, 40.686299 ], [ -73.904969, 40.6866 ], [ -73.905343, 40.68682 ], [ -73.904142, 40.688568 ], [ -73.901805, 40.690766 ], [ -73.900425, 40.688184 ], [ -73.901162, 40.687878 ], [ -73.897341, 40.683368 ], [ -73.896518, 40.682397 ], [ -73.896615, 40.682008 ], [ -73.896823, 40.681155 ], [ -73.896929, 40.680746 ], [ -73.897035, 40.680565 ], [ -73.897186, 40.680368 ], [ -73.897494, 40.680074 ], [ -73.897769, 40.679926 ], [ -73.898204, 40.679768 ], [ -73.898899, 40.679561 ], [ -73.899698, 40.679545 ], [ -73.900283, 40.679442 ], [ -73.900752, 40.679677 ], [ -73.902622, 40.680664 ], [ -73.902764, 40.680745 ], [ -73.902822, 40.681626 ], [ -73.902822, 40.682353 ], [ -73.902956, 40.682435 ], [ -73.903133, 40.682538 ], [ -73.903903, 40.682946 ], [ -73.904636, 40.683376 ], [ -73.905433, 40.68366 ] ] ] } },
{ "type": "Feature", "properties": { "GEOID": "360470409001", "far_gap": 0.73916129032258071, "lot_count": 155 }, "geometry": { "type": "Polygon", "coordinates": [ [ [ -73.905846, 40.691692 ], [ -73.904288, 40.693278 ], [ -73.903541, 40.692849 ], [ -73.902788, 40.692418 ], [ -73.902073, 40.691999 ], [ -73.90183, 40.691815 ], [ -73.90159, 40.691632 ], [ -73.901241, 40.691438 ], [ -73.901805, 40.690766 ], [ -73.904142, 40.688568 ], [ -73.904728, 40.688753 ], [ -73.904815, 40.688807 ], [ -73.905041, 40.688935 ], [ -73.90394, 40.690058 ], [ -73.903597, 40.690409 ], [ -73.904342, 40.690836 ], [ -73.905095, 40.691265 ], [ -73.905846, 40.691692 ] ] ] } },
{ "type": "Feature", "properties": { "GEOID": "360470409002", "far_gap": 0.68914285714285717, "lot_count": 105 }, "geometry": { "type": "Polygon", "coordinates": [ [ [ -73.907292, 40.690219 ], [ -73.905846, 40.691692 ], [ -73.905095, 40.691265 ], [ -73.904342, 40.690836 ], [ -73.903597, 40.690409 ], [ -73.90394, 40.690058 ], [ -73.905041, 40.688935 ], [ -73.905793, 40.689365 ], [ -73.906544, 40.689791 ], [ -73.907292, 40.690219 ] ] ] } },
{ "type": "Feature", "properties": { "GEOID": "360470411001", "far_gap": 0.66951388888888885, "lot_count": 144 }, "geometry": { "type": "Polygon", "coordinates": [ [ [ -73.907989, 40.688318 ], [ -73.906544, 40.689791 ], [ -73.905793, 40.689365 ], [ -73.905041, 40.688935 ], [ -73.904815, 40.688807 ], [ -73.904728, 40.688753 ], [ -73.904142, 40.688568 ], [ -73.905343, 40.68682 ], [ -73.905473, 40.686893 ], [ -73.905738, 40.68704 ], [ -73.906486, 40.687461 ], [ -73.907238, 40.68789 ], [ -73.907989, 40.688318 ] ] ] } },
{ "type": "Feature", "properties": { "GEOID": "360470411002", "far_gap": 1.0406474820143885, "lot_count": 139 }, "geometry": { "type": "Polygon", "coordinates": [ [ [ -73.909439, 40.686845 ], [ -73.907989, 40.688318 ], [ -73.907238, 40.68789 ], [ -73.906486, 40.687461 ], [ -73.905738, 40.68704 ], [ -73.907183, 40.685561 ], [ -73.907934, 40.685988 ], [ -73.908688, 40.686417 ], [ -73.909439, 40.686845 ] ] ] } },
{ "type": "Feature", "properties": { "GEOID": "360470415002", "far_gap": 0.99362831858407086, "lot_count": 226 }, "geometry": { "type": "Polygon", "coordinates": [ [ [ -73.916964, 40.69111 ], [ -73.915505, 40.692594 ], [ -73.914754, 40.692166 ], [ -73.914002, 40.691737 ], [ -73.91325, 40.69131 ], [ -73.9125, 40.690883 ], [ -73.913946, 40.689409 ], [ -73.914699, 40.689836 ], [ -73.91545, 40.690264 ], [ -73.916199, 40.690692 ], [ -73.916964, 40.69111 ] ] ] } },
{ "type": "Feature", "properties": { "GEOID": "360470417002", "far_gap": 0.92191489361702128, "lot_count": 47 }, "geometry": { "type": "Polygon", "coordinates": [ [ [ -73.919459, 40.692149 ], [ -73.917761, 40.693877 ], [ -73.917009, 40.693449 ], [ -73.916257, 40.693022 ], [ -73.917791, 40.69146 ], [ -73.91862, 40.691808 ], [ -73.919459, 40.692149 ] ] ] } },
{ "type": "Feature", "properties": { "GEOID": "360470417004", "far_gap": 0.86212765957446813, "lot_count": 47 }, "geometry": { "type": "Polygon", "coordinates": [ [ [ -73.921154, 40.692796 ], [ -73.919271, 40.694731 ], [ -73.918393, 40.695624 ], [ -73.917818, 40.696208 ], [ -73.917071, 40.695782 ], [ -73.918512, 40.694304 ], [ -73.920301, 40.692485 ], [ -73.921154, 40.692796 ] ] ] } },
{ "type": "Feature", "properties": { "GEOID": "360470419001", "far_gap": 1.1027272727272728, "lot_count": 154 }, "geometry": { "type": "Polygon", "coordinates": [ [ [ -73.922748, 40.693573 ], [ -73.920767, 40.695587 ], [ -73.919321, 40.697061 ], [ -73.918564, 40.69663 ], [ -73.917818, 40.696208 ], [ -73.918393, 40.695624 ], [ -73.919271, 40.694731 ], [ -73.921154, 40.692796 ], [ -73.921994, 40.693144 ], [ -73.922748, 40.693573 ] ] ] } },
{ "type": "Feature", "properties": { "GEOID": "360470419003", "far_gap": 0.96388235294117652, "lot_count": 85 }, "geometry": { "type": "Polygon", "coordinates": [ [ [ -73.924249, 40.694429 ], [ -73.922271, 40.696443 ], [ -73.921118, 40.697618 ], [ -73.920824, 40.697918 ], [ -73.920074, 40.69749 ], [ -73.92152, 40.696015 ], [ -73.923498, 40.694001 ], [ -73.924249, 40.694429 ] ] ] } },
{ "type": "Feature", "properties": { "GEOID": "360470421003", "far_gap": 1.0003, "lot_count": 100 }, "geometry": { "type": "Polygon", "coordinates": [ [ [ -73.92725, 40.696142 ], [ -73.925352, 40.69808 ], [ -73.925273, 40.698161 ], [ -73.924072, 40.699382 ], [ -73.923934, 40.699524 ], [ -73.923833, 40.699628 ], [ -73.923082, 40.6992 ], [ -73.923336, 40.69894 ], [ -73.923401, 40.698875 ], [ -73.924049, 40.698215 ], [ -73.924528, 40.697726 ], [ -73.926499, 40.695712 ], [ -73.92725, 40.696142 ] ] ] } },
{ "type": "Feature", "properties": { "GEOID": "360470421004", "far_gap": 0.95714285714285707, "lot_count": 126 }, "geometry": { "type": "Polygon", "coordinates": [ [ [ -73.926499, 40.695712 ], [ -73.924528, 40.697726 ], [ -73.924049, 40.698215 ], [ -73.923401, 40.698875 ], [ -73.923336, 40.69894 ], [ -73.923082, 40.6992 ], [ -73.922932, 40.699115 ], [ -73.922328, 40.698772 ], [ -73.922457, 40.69864 ], [ -73.922744, 40.698349 ], [ -73.923776, 40.697299 ], [ -73.92575, 40.695285 ], [ -73.926499, 40.695712 ] ] ] } },
{ "type": "Feature", "properties": { "GEOID": "360470423001", "far_gap": 1.1494396551724138, "lot_count": 232 }, "geometry": { "type": "Polygon", "coordinates": [ [ [ -73.929964, 40.69825 ], [ -73.927797, 40.699585 ], [ -73.927532, 40.699439 ], [ -73.927049, 40.699159 ], [ -73.926782, 40.699015 ], [ -73.926305, 40.698738 ], [ -73.926024, 40.69858 ], [ -73.925564, 40.69831 ], [ -73.925273, 40.698161 ], [ -73.925352, 40.69808 ], [ -73.92725, 40.696142 ], [ -73.928231, 40.696666 ], [ -73.928833, 40.697186 ], [ -73.929316, 40.69764 ], [ -73.929394, 40.697713 ], [ -73.929964, 40.69825 ] ] ] } },
{ "type": "Feature", "properties": { "GEOID": "360470425002", "far_gap": 0.38533333333333331, "lot_count": 90 }, "geometry": { "type": "Polygon", "coordinates": [ [ [ -73.933951, 40.702674 ], [ -73.933523, 40.702849 ], [ -73.932792, 40.702431 ], [ -73.932044, 40.702002 ], [ -73.931291, 40.701573 ], [ -73.930543, 40.701141 ], [ -73.929787, 40.700718 ], [ -73.929035, 40.70029 ], [ -73.929331, 40.699987 ], [ -73.930305, 40.698992 ], [ -73.930521, 40.698772 ], [ -73.93077, 40.698911 ], [ -73.93128, 40.699202 ], [ -73.931555, 40.69936 ], [ -73.932031, 40.699628 ], [ -73.93235, 40.699814 ], [ -73.932781, 40.700059 ], [ -73.93314, 40.700827 ], [ -73.93353, 40.701716 ], [ -73.933951, 40.702674 ] ] ] } },
{ "type": "Feature", "properties": { "GEOID": "360470427001", "far_gap": 0.56863157894736838, "lot_count": 95 }, "geometry": { "type": "Polygon", "coordinates": [ [ [ -73.927588, 40.701762 ], [ -73.92614, 40.703239 ], [ -73.924586, 40.704825 ], [ -73.923834, 40.704398 ], [ -73.925389, 40.70281 ], [ -73.926838, 40.701334 ], [ -73.927588, 40.701762 ] ] ] } },
{ "type": "Feature", "properties": { "GEOID": "360470429002", "far_gap": 0.4692708333333333, "lot_count": 96 }, "geometry": { "type": "Polygon", "coordinates": [ [ [ -73.925329, 40.700481 ], [ -73.923886, 40.701957 ], [ -73.922331, 40.703543 ], [ -73.92158, 40.703115 ], [ -73.923133, 40.70153 ], [ -73.924582, 40.700056 ], [ -73.925329, 40.700481 ] ] ] } },
{ "type": "Feature", "properties": { "GEOID": "360470431004", "far_gap": 0.5434, "lot_count": 100 }, "geometry": { "type": "Polygon", "coordinates": [ [ [ -73.923082, 40.6992 ], [ -73.921631, 40.700675 ], [ -73.920075, 40.702259 ], [ -73.919323, 40.701831 ], [ -73.92088, 40.700247 ], [ -73.922328, 40.698772 ], [ -73.922932, 40.699115 ], [ -73.923082, 40.6992 ] ] ] } },
{ "type": "Feature", "properties": { "GEOID": "360470433001", "far_gap": 1.4795348837209303, "lot_count": 43 }, "geometry": { "type": "Polygon", "coordinates": [ [ [ -73.919321, 40.697061 ], [ -73.917872, 40.698537 ], [ -73.917118, 40.69811 ], [ -73.916368, 40.69768 ], [ -73.915616, 40.697253 ], [ -73.914865, 40.696826 ], [ -73.914114, 40.696398 ], [ -73.915562, 40.694922 ], [ -73.916313, 40.695351 ], [ -73.917071, 40.695782 ], [ -73.917818, 40.696208 ], [ -73.918564, 40.69663 ], [ -73.919321, 40.697061 ] ] ] } },
{ "type": "Feature", "properties": { "GEOID": "360470435002", "far_gap": 0.90681818181818186, "lot_count": 154 }, "geometry": { "type": "Polygon", "coordinates": [ [ [ -73.914057, 40.694068 ], [ -73.912608, 40.695541 ], [ -73.91186, 40.695115 ], [ -73.911107, 40.694687 ], [ -73.910918, 40.694579 ], [ -73.910357, 40.694259 ], [ -73.911805, 40.692785 ], [ -73.912554, 40.693212 ], [ -73.913307, 40.693641 ], [ -73.914057, 40.694068 ] ] ] } },
{ "type": "Feature", "properties": { "GEOID": "360470435003", "far_gap": 1.0274431818181819, "lot_count": 176 }, "geometry": { "type": "Polygon", "coordinates": [ [ [ -73.915562, 40.694922 ], [ -73.914114, 40.696398 ], [ -73.912556, 40.697982 ], [ -73.911806, 40.697554 ], [ -73.913361, 40.69597 ], [ -73.912608, 40.695541 ], [ -73.914057, 40.694068 ], [ -73.914808, 40.694497 ], [ -73.915562, 40.694922 ] ] ] } },
{ "type": "Feature", "properties": { "GEOID": "360470433003", "far_gap": 0.65188311688311684, "lot_count": 154 }, "geometry": { "type": "Polygon", "coordinates": [ [ [ -73.9161, 40.697953 ], [ -73.914912, 40.699166 ], [ -73.914815, 40.699266 ], [ -73.914681, 40.69919 ], [ -73.914061, 40.698838 ], [ -73.913309, 40.69841 ], [ -73.912556, 40.697982 ], [ -73.914114, 40.696398 ], [ -73.914865, 40.696826 ], [ -73.915616, 40.697253 ], [ -73.916368, 40.69768 ], [ -73.9161, 40.697953 ] ] ] } },
{ "type": "Feature", "properties": { "GEOID": "360470397001", "far_gap": 0.76593548387096777, "lot_count": 155 }, "geometry": { "type": "Polygon", "coordinates": [ [ [ -73.918294, 40.687357 ], [ -73.916899, 40.68879 ], [ -73.916147, 40.688361 ], [ -73.915395, 40.687936 ], [ -73.914642, 40.687507 ], [ -73.914785, 40.68736 ], [ -73.914887, 40.687254 ], [ -73.915753, 40.68637 ], [ -73.916046, 40.686072 ], [ -73.916611, 40.686391 ], [ -73.916798, 40.686497 ], [ -73.917614, 40.686966 ], [ -73.918046, 40.687213 ], [ -73.918294, 40.687357 ] ] ] } },
{ "type": "Feature", "properties": { "GEOID": "360470399003", "far_gap": 1.0084090909090908, "lot_count": 88 }, "geometry": { "type": "Polygon", "coordinates": [ [ [ -73.92223, 40.691823 ], [ -73.92128, 40.692797 ], [ -73.921154, 40.692796 ], [ -73.920301, 40.692485 ], [ -73.919459, 40.692149 ], [ -73.91862, 40.691808 ], [ -73.919906, 40.690499 ], [ -73.920657, 40.690927 ], [ -73.921411, 40.691353 ], [ -73.92223, 40.691823 ] ] ] } },
{ "type": "Feature", "properties": { "GEOID": "360470427003", "far_gap": 0.58453488372093032, "lot_count": 86 }, "geometry": { "type": "Polygon", "coordinates": [ [ [ -73.929091, 40.70262 ], [ -73.927644, 40.704092 ], [ -73.926089, 40.70568 ], [ -73.925335, 40.705253 ], [ -73.926891, 40.703667 ], [ -73.928339, 40.702192 ], [ -73.929091, 40.70262 ] ] ] } },
{ "type": "Feature", "properties": { "GEOID": "360470429001", "far_gap": 0.67101123595505618, "lot_count": 89 }, "geometry": { "type": "Polygon", "coordinates": [ [ [ -73.926838, 40.701334 ], [ -73.925389, 40.70281 ], [ -73.923834, 40.704398 ], [ -73.923083, 40.703975 ], [ -73.922331, 40.703543 ], [ -73.923886, 40.701957 ], [ -73.925329, 40.700481 ], [ -73.926083, 40.70091 ], [ -73.926838, 40.701334 ] ] ] } },
{ "type": "Feature", "properties": { "GEOID": "360470431002", "far_gap": 0.60594059405940592, "lot_count": 101 }, "geometry": { "type": "Polygon", "coordinates": [ [ [ -73.921435, 40.698487 ], [ -73.920127, 40.69982 ], [ -73.918572, 40.701404 ], [ -73.917819, 40.700976 ], [ -73.919377, 40.699392 ], [ -73.918631, 40.698965 ], [ -73.918744, 40.698858 ], [ -73.91885, 40.698756 ], [ -73.920074, 40.69749 ], [ -73.920824, 40.697918 ], [ -73.921574, 40.698345 ], [ -73.921435, 40.698487 ] ] ] } },
{ "type": "Feature", "properties": { "GEOID": "360470435001", "far_gap": 0.64693430656934303, "lot_count": 137 }, "geometry": { "type": "Polygon", "coordinates": [ [ [ -73.913361, 40.69597 ], [ -73.911806, 40.697554 ], [ -73.911049, 40.697126 ], [ -73.910303, 40.6967 ], [ -73.909551, 40.696271 ], [ -73.908799, 40.695845 ], [ -73.910113, 40.694506 ], [ -73.910357, 40.694259 ], [ -73.910918, 40.694579 ], [ -73.911107, 40.694687 ], [ -73.91186, 40.695115 ], [ -73.912608, 40.695541 ], [ -73.913361, 40.69597 ] ] ] } },
{ "type": "Feature", "properties": { "GEOID": "360470441002", "far_gap": 0.74073333333333335, "lot_count": 150 }, "geometry": { "type": "Polygon", "coordinates": [ [ [ -73.917068, 40.700548 ], [ -73.9156, 40.702046 ], [ -73.914386, 40.703239 ], [ -73.913644, 40.702799 ], [ -73.91485, 40.701617 ], [ -73.914088, 40.701198 ], [ -73.915565, 40.699693 ], [ -73.916316, 40.700122 ], [ -73.917068, 40.700548 ] ] ] } },
{ "type": "Feature", "properties": { "GEOID": "360470401003", "far_gap": 0.82283505154639169, "lot_count": 194 }, "geometry": { "type": "Polygon", "coordinates": [ [ [ -73.916046, 40.686072 ], [ -73.915753, 40.68637 ], [ -73.914887, 40.687254 ], [ -73.914785, 40.68736 ], [ -73.914642, 40.687507 ], [ -73.914521, 40.687629 ], [ -73.914396, 40.687755 ], [ -73.913194, 40.68898 ], [ -73.912929, 40.688829 ], [ -73.912878, 40.6888 ], [ -73.912819, 40.688767 ], [ -73.912443, 40.688553 ], [ -73.911692, 40.688125 ], [ -73.91094, 40.687699 ], [ -73.912389, 40.686224 ], [ -73.91314, 40.686652 ], [ -73.913892, 40.687079 ], [ -73.91529, 40.685645 ], [ -73.915501, 40.685762 ], [ -73.915827, 40.685947 ], [ -73.916046, 40.686072 ] ] ] } },
{ "type": "Feature", "properties": { "GEOID": "360470411003", "far_gap": 0.85608695652173916, "lot_count": 115 }, "geometry": { "type": "Polygon", "coordinates": [ [ [ -73.910189, 40.687271 ], [ -73.908742, 40.688745 ], [ -73.907292, 40.690219 ], [ -73.906544, 40.689791 ], [ -73.907989, 40.688318 ], [ -73.909439, 40.686845 ], [ -73.910189, 40.687271 ] ] ] } },
{ "type": "Feature", "properties": { "GEOID": "360470413001", "far_gap": 1.0446835443037974, "lot_count": 158 }, "geometry": { "type": "Polygon", "coordinates": [ [ [ -73.911692, 40.688125 ], [ -73.910244, 40.689601 ], [ -73.908797, 40.691075 ], [ -73.908042, 40.690647 ], [ -73.907292, 40.690219 ], [ -73.908742, 40.688745 ], [ -73.910189, 40.687271 ], [ -73.91094, 40.687699 ], [ -73.911692, 40.688125 ] ] ] } },
{ "type": "Feature", "properties": { "GEOID": "360470425003", "far_gap": 0.5277173913043478, "lot_count": 92 }, "geometry": { "type": "Polygon", "coordinates": [ [ [ -73.933523, 40.702849 ], [ -73.932698, 40.703171 ], [ -73.931729, 40.703546 ], [ -73.931155, 40.703773 ], [ -73.930594, 40.703473 ], [ -73.929843, 40.703047 ], [ -73.929091, 40.70262 ], [ -73.929309, 40.702397 ], [ -73.929635, 40.702064 ], [ -73.930543, 40.701141 ], [ -73.931291, 40.701573 ], [ -73.932044, 40.702002 ], [ -73.932792, 40.702431 ], [ -73.933523, 40.702849 ] ] ] } },
{ "type": "Feature", "properties": { "GEOID": "360470423003", "far_gap": 0.96659340659340665, "lot_count": 91 }, "geometry": { "type": "Polygon", "coordinates": [ [ [ -73.926782, 40.699015 ], [ -73.925539, 40.700267 ], [ -73.92546, 40.700347 ], [ -73.925329, 40.700481 ], [ -73.924582, 40.700056 ], [ -73.923833, 40.699628 ], [ -73.923934, 40.699524 ], [ -73.924072, 40.699382 ], [ -73.925273, 40.698161 ], [ -73.925564, 40.69831 ], [ -73.926024, 40.69858 ], [ -73.926305, 40.698738 ], [ -73.926782, 40.699015 ] ] ] } },
{ "type": "Feature", "properties": { "GEOID": "360470429004", "far_gap": 0.5116666666666666, "lot_count": 90 }, "geometry": { "type": "Polygon", "coordinates": [ [ [ -73.923833, 40.699628 ], [ -73.922384, 40.701102 ], [ -73.920827, 40.702686 ], [ -73.920075, 40.702259 ], [ -73.921631, 40.700675 ], [ -73.923082, 40.6992 ], [ -73.923833, 40.699628 ] ] ] } },
{ "type": "Feature", "properties": { "GEOID": "360470445002", "far_gap": 0.77661654135338354, "lot_count": 133 }, "geometry": { "type": "Polygon", "coordinates": [ [ [ -73.923083, 40.703975 ], [ -73.92141, 40.70567 ], [ -73.920684, 40.705216 ], [ -73.919957, 40.704764 ], [ -73.91923, 40.704312 ], [ -73.918504, 40.703858 ], [ -73.920075, 40.702259 ], [ -73.920827, 40.702686 ], [ -73.92158, 40.703115 ], [ -73.922331, 40.703543 ], [ -73.923083, 40.703975 ] ] ] } },
{ "type": "Feature", "properties": { "GEOID": "360470397003", "far_gap": 0.93779411764705889, "lot_count": 136 }, "geometry": { "type": "Polygon", "coordinates": [ [ [ -73.923644, 40.690399 ], [ -73.92295, 40.6911 ], [ -73.92223, 40.691823 ], [ -73.921411, 40.691353 ], [ -73.920657, 40.690927 ], [ -73.919906, 40.690499 ], [ -73.919153, 40.690076 ], [ -73.92055, 40.688641 ], [ -73.920961, 40.688872 ], [ -73.921214, 40.689019 ], [ -73.921306, 40.689072 ], [ -73.922072, 40.68949 ], [ -73.922807, 40.689924 ], [ -73.923169, 40.690123 ], [ -73.923644, 40.690399 ] ] ] } },
{ "type": "Feature", "properties": { "GEOID": "360470415001", "far_gap": 1.0342134831460674, "lot_count": 178 }, "geometry": { "type": "Polygon", "coordinates": [ [ [ -73.914754, 40.692166 ], [ -73.913307, 40.693641 ], [ -73.912554, 40.693212 ], [ -73.911805, 40.692785 ], [ -73.911053, 40.692358 ], [ -73.9125, 40.690883 ], [ -73.91325, 40.69131 ], [ -73.914002, 40.691737 ], [ -73.914754, 40.692166 ] ] ] } },
{ "type": "Feature", "properties": { "GEOID": "360470403002", "far_gap": 1.04425, "lot_count": 160 }, "geometry": { "type": "Polygon", "coordinates": [ [ [ -73.912273, 40.683935 ], [ -73.910887, 40.685369 ], [ -73.910132, 40.684939 ], [ -73.909382, 40.684513 ], [ -73.908629, 40.684086 ], [ -73.907878, 40.683657 ], [ -73.909275, 40.682235 ], [ -73.910067, 40.682684 ], [ -73.910769, 40.683092 ], [ -73.911512, 40.683505 ], [ -73.912273, 40.683935 ] ] ] } },
{ "type": "Feature", "properties": { "GEOID": "360470393003", "far_gap": 0.86236111111111113, "lot_count": 144 }, "geometry": { "type": "Polygon", "coordinates": [ [ [ -73.931145, 40.694674 ], [ -73.929894, 40.696004 ], [ -73.929584, 40.69584 ], [ -73.929235, 40.695643 ], [ -73.928431, 40.695205 ], [ -73.928259, 40.695111 ], [ -73.927497, 40.694697 ], [ -73.927227, 40.694548 ], [ -73.926736, 40.69428 ], [ -73.926481, 40.694141 ], [ -73.927811, 40.692774 ], [ -73.928043, 40.692904 ], [ -73.928507, 40.693166 ], [ -73.928642, 40.693241 ], [ -73.929702, 40.693864 ], [ -73.930512, 40.694317 ], [ -73.931145, 40.694674 ] ] ] } },
{ "type": "Feature", "properties": { "GEOID": "360470431001", "far_gap": 0.88650943396226412, "lot_count": 106 }, "geometry": { "type": "Polygon", "coordinates": [ [ [ -73.920074, 40.69749 ], [ -73.91885, 40.698756 ], [ -73.918744, 40.698858 ], [ -73.918631, 40.698965 ], [ -73.919377, 40.699392 ], [ -73.917819, 40.700976 ], [ -73.917068, 40.700548 ], [ -73.916316, 40.700122 ], [ -73.917522, 40.698893 ], [ -73.917872, 40.698537 ], [ -73.919321, 40.697061 ], [ -73.920074, 40.69749 ] ] ] } },
{ "type": "Feature", "properties": { "GEOID": "360470409003", "far_gap": 0.83964285714285725, "lot_count": 112 }, "geometry": { "type": "Polygon", "coordinates": [ [ [ -73.908042, 40.690647 ], [ -73.906599, 40.69212 ], [ -73.905043, 40.693704 ], [ -73.904288, 40.693278 ], [ -73.905846, 40.691692 ], [ -73.907292, 40.690219 ], [ -73.908042, 40.690647 ] ] ] } },
{ "type": "Feature", "properties": { "GEOID": "360470445003", "far_gap": 0.43795454545454549, "lot_count": 132 }, "geometry": { "type": "Polygon", "coordinates": [ [ [ -73.92141, 40.70567 ], [ -73.920315, 40.706744 ], [ -73.919222, 40.707815 ], [ -73.918477, 40.707382 ], [ -73.917737, 40.706943 ], [ -73.918833, 40.705867 ], [ -73.919957, 40.704764 ], [ -73.920684, 40.705216 ], [ -73.92141, 40.70567 ] ] ] } },
{ "type": "Feature", "properties": { "GEOID": "360470421001", "far_gap": 0.95956043956043968, "lot_count": 91 }, "geometry": { "type": "Polygon", "coordinates": [ [ [ -73.924995, 40.694855 ], [ -73.923025, 40.696871 ], [ -73.921892, 40.698021 ], [ -73.921574, 40.698345 ], [ -73.920824, 40.697918 ], [ -73.921118, 40.697618 ], [ -73.922271, 40.696443 ], [ -73.924249, 40.694429 ], [ -73.924995, 40.694855 ] ] ] } },
{ "type": "Feature", "properties": { "GEOID": "360470437003", "far_gap": 0.64698275862068966, "lot_count": 116 }, "geometry": { "type": "Polygon", "coordinates": [ [ [ -73.911805, 40.692785 ], [ -73.910357, 40.694259 ], [ -73.910113, 40.694506 ], [ -73.908799, 40.695845 ], [ -73.908047, 40.695417 ], [ -73.909605, 40.693832 ], [ -73.911053, 40.692358 ], [ -73.911805, 40.692785 ] ] ] } },
{ "type": "Feature", "properties": { "GEOID": "360470401002", "far_gap": 0.74620915032679735, "lot_count": 153 }, "geometry": { "type": "Polygon", "coordinates": [ [ [ -73.91529, 40.685645 ], [ -73.913892, 40.687079 ], [ -73.91314, 40.686652 ], [ -73.912389, 40.686224 ], [ -73.911637, 40.685796 ], [ -73.913037, 40.684368 ], [ -73.913238, 40.684482 ], [ -73.913308, 40.684521 ], [ -73.913798, 40.6848 ], [ -73.91454, 40.685227 ], [ -73.914701, 40.685317 ], [ -73.91529, 40.685645 ] ] ] } },
{ "type": "Feature", "properties": { "GEOID": "360470431003", "far_gap": 0.77723404255319151, "lot_count": 94 }, "geometry": { "type": "Polygon", "coordinates": [ [ [ -73.922328, 40.698772 ], [ -73.92088, 40.700247 ], [ -73.919323, 40.701831 ], [ -73.918572, 40.701404 ], [ -73.920127, 40.69982 ], [ -73.921435, 40.698487 ], [ -73.921574, 40.698345 ], [ -73.921757, 40.698453 ], [ -73.922328, 40.698772 ] ] ] } },
{ "type": "Feature", "properties": { "GEOID": "360470399001", "far_gap": 0.87196078431372548, "lot_count": 153 }, "geometry": { "type": "Polygon", "coordinates": [ [ [ -73.916899, 40.68879 ], [ -73.91545, 40.690264 ], [ -73.914699, 40.689836 ], [ -73.913946, 40.689409 ], [ -73.913194, 40.68898 ], [ -73.914396, 40.687755 ], [ -73.914521, 40.687629 ], [ -73.914642, 40.687507 ], [ -73.915395, 40.687936 ], [ -73.916147, 40.688361 ], [ -73.916899, 40.68879 ] ] ] } },
{ "type": "Feature", "properties": { "GEOID": "360470421002", "far_gap": 0.92489361702127659, "lot_count": 94 }, "geometry": { "type": "Polygon", "coordinates": [ [ [ -73.92575, 40.695285 ], [ -73.923776, 40.697299 ], [ -73.922744, 40.698349 ], [ -73.922457, 40.69864 ], [ -73.922328, 40.698772 ], [ -73.921757, 40.698453 ], [ -73.921574, 40.698345 ], [ -73.921892, 40.698021 ], [ -73.923025, 40.696871 ], [ -73.924995, 40.694855 ], [ -73.92575, 40.695285 ] ] ] } },
{ "type": "Feature", "properties": { "GEOID": "360470443003", "far_gap": 0.59077777777777785, "lot_count": 90 }, "geometry": { "type": "Polygon", "coordinates": [ [ [ -73.920075, 40.702259 ], [ -73.918504, 40.703858 ], [ -73.917777, 40.703405 ], [ -73.91705, 40.702953 ], [ -73.918572, 40.701404 ], [ -73.919323, 40.701831 ], [ -73.920075, 40.702259 ] ] ] } },
{ "type": "Feature", "properties": { "GEOID": "360470437004", "far_gap": 0.8121649484536082, "lot_count": 97 }, "geometry": { "type": "Polygon", "coordinates": [ [ [ -73.909605, 40.693832 ], [ -73.908047, 40.695417 ], [ -73.907296, 40.694987 ], [ -73.906545, 40.69456 ], [ -73.908101, 40.692976 ], [ -73.908853, 40.693405 ], [ -73.909605, 40.693832 ] ] ] } },
{ "type": "Feature", "properties": { "GEOID": "360470417001", "far_gap": 0.84352941176470586, "lot_count": 34 }, "geometry": { "type": "Polygon", "coordinates": [ [ [ -73.917761, 40.693877 ], [ -73.916313, 40.695351 ], [ -73.915562, 40.694922 ], [ -73.914808, 40.694497 ], [ -73.916257, 40.693022 ], [ -73.917009, 40.693449 ], [ -73.917761, 40.693877 ] ] ] } },
{ "type": "Feature", "properties": { "GEOID": "360470419002", "far_gap": 1.0244943820224719, "lot_count": 89 }, "geometry": { "type": "Polygon", "coordinates": [ [ [ -73.923498, 40.694001 ], [ -73.92152, 40.696015 ], [ -73.920074, 40.69749 ], [ -73.919321, 40.697061 ], [ -73.920767, 40.695587 ], [ -73.922748, 40.693573 ], [ -73.923498, 40.694001 ] ] ] } },
{ "type": "Feature", "properties": { "GEOID": "360470405001", "far_gap": 0.76531914893617015, "lot_count": 188 }, "geometry": { "type": "Polygon", "coordinates": [ [ [ -73.907018, 40.680948 ], [ -73.90572, 40.682302 ], [ -73.905641, 40.682383 ], [ -73.905758, 40.68245 ], [ -73.906376, 40.682802 ], [ -73.905787, 40.683397 ], [ -73.905433, 40.68366 ], [ -73.904636, 40.683376 ], [ -73.903903, 40.682946 ], [ -73.903133, 40.682538 ], [ -73.902956, 40.682435 ], [ -73.902822, 40.682353 ], [ -73.902822, 40.681626 ], [ -73.902764, 40.680745 ], [ -73.902622, 40.680664 ], [ -73.904046, 40.67922 ], [ -73.904568, 40.679515 ], [ -73.904791, 40.679641 ], [ -73.905493, 40.680037 ], [ -73.905659, 40.680141 ], [ -73.906282, 40.680507 ], [ -73.90672, 40.680768 ], [ -73.907018, 40.680948 ] ] ] } },
{ "type": "Feature", "properties": { "GEOID": "360470441001", "far_gap": 0.72028985507246379, "lot_count": 138 }, "geometry": { "type": "Polygon", "coordinates": [ [ [ -73.915565, 40.699693 ], [ -73.914088, 40.701198 ], [ -73.912904, 40.702362 ], [ -73.912162, 40.701923 ], [ -73.911422, 40.701487 ], [ -73.912569, 40.700358 ], [ -73.913606, 40.6993 ], [ -73.914061, 40.698838 ], [ -73.914681, 40.69919 ], [ -73.914815, 40.699266 ], [ -73.915565, 40.699693 ] ] ] } },
{ "type": "Feature", "properties": { "GEOID": "360470413002", "far_gap": 1.0395070422535213, "lot_count": 142 }, "geometry": { "type": "Polygon", "coordinates": [ [ [ -73.912443, 40.688553 ], [ -73.910996, 40.690027 ], [ -73.911748, 40.690456 ], [ -73.911626, 40.690579 ], [ -73.910571, 40.691651 ], [ -73.910378, 40.691848 ], [ -73.910298, 40.69193 ], [ -73.90955, 40.691503 ], [ -73.908797, 40.691075 ], [ -73.910244, 40.689601 ], [ -73.911692, 40.688125 ], [ -73.912443, 40.688553 ] ] ] } },
{ "type": "Feature", "properties": { "GEOID": "360470425001", "far_gap": 0.72407407407407409, "lot_count": 81 }, "geometry": { "type": "Polygon", "coordinates": [ [ [ -73.930543, 40.701141 ], [ -73.929635, 40.702064 ], [ -73.929309, 40.702397 ], [ -73.929091, 40.70262 ], [ -73.928339, 40.702192 ], [ -73.927588, 40.701762 ], [ -73.929035, 40.70029 ], [ -73.929787, 40.700718 ], [ -73.930543, 40.701141 ] ] ] } },
{ "type": "Feature", "properties": { "GEOID": "360470447002", "far_gap": 0.06363636363636363, "lot_count": 110 }, "geometry": { "type": "Polygon", "coordinates": [ [ [ -73.925896, 40.705877 ], [ -73.925137, 40.706539 ], [ -73.924907, 40.706745 ], [ -73.924169, 40.707394 ], [ -73.923591, 40.707029 ], [ -73.922863, 40.706576 ], [ -73.922136, 40.706124 ], [ -73.92141, 40.70567 ], [ -73.923083, 40.703975 ], [ -73.923834, 40.704398 ], [ -73.924586, 40.704825 ], [ -73.925335, 40.705253 ], [ -73.926089, 40.70568 ], [ -73.925896, 40.705877 ] ] ] } },
{ "type": "Feature", "properties": { "GEOID": "360470413003", "far_gap": 0.95062146892655364, "lot_count": 177 }, "geometry": { "type": "Polygon", "coordinates": [ [ [ -73.913946, 40.689409 ], [ -73.9125, 40.690883 ], [ -73.911053, 40.692358 ], [ -73.910298, 40.69193 ], [ -73.910378, 40.691848 ], [ -73.910571, 40.691651 ], [ -73.911626, 40.690579 ], [ -73.911748, 40.690456 ], [ -73.910996, 40.690027 ], [ -73.912443, 40.688553 ], [ -73.912819, 40.688767 ], [ -73.912878, 40.6888 ], [ -73.912929, 40.688829 ], [ -73.913194, 40.68898 ], [ -73.913946, 40.689409 ] ] ] } },
{ "type": "Feature", "properties": { "GEOID": "360470391002", "far_gap": 0.5016, "lot_count": 150 }, "geometry": { "type": "Polygon", "coordinates": [ [ [ -73.934731, 40.698799 ], [ -73.934009, 40.699109 ], [ -73.93235, 40.699814 ], [ -73.932031, 40.699628 ], [ -73.931555, 40.69936 ], [ -73.93128, 40.699202 ], [ -73.93077, 40.698911 ], [ -73.930521, 40.698772 ], [ -73.930262, 40.698529 ], [ -73.929964, 40.69825 ], [ -73.929394, 40.697713 ], [ -73.929316, 40.69764 ], [ -73.929615, 40.697607 ], [ -73.931223, 40.697433 ], [ -73.931338, 40.69742 ], [ -73.932267, 40.697315 ], [ -73.933246, 40.697855 ], [ -73.933696, 40.698104 ], [ -73.933987, 40.698264 ], [ -73.934762, 40.6987 ], [ -73.934731, 40.698799 ] ] ] } },
{ "type": "Feature", "properties": { "GEOID": "360470427002", "far_gap": 0.52646464646464641, "lot_count": 99 }, "geometry": { "type": "Polygon", "coordinates": [ [ [ -73.928339, 40.702192 ], [ -73.926891, 40.703667 ], [ -73.925335, 40.705253 ], [ -73.924586, 40.704825 ], [ -73.92614, 40.703239 ], [ -73.927588, 40.701762 ], [ -73.928339, 40.702192 ] ] ] } },
{ "type": "Feature", "properties": { "GEOID": "360470393002", "far_gap": 1.0354819277108434, "lot_count": 166 }, "geometry": { "type": "Polygon", "coordinates": [ [ [ -73.935222, 40.696986 ], [ -73.934008, 40.697118 ], [ -73.932835, 40.697247 ], [ -73.932267, 40.697315 ], [ -73.931842, 40.697077 ], [ -73.931084, 40.696659 ], [ -73.9305, 40.696337 ], [ -73.930348, 40.696254 ], [ -73.929894, 40.696004 ], [ -73.931145, 40.694674 ], [ -73.931458, 40.694855 ], [ -73.931773, 40.695028 ], [ -73.931929, 40.695115 ], [ -73.932366, 40.695358 ], [ -73.933118, 40.695791 ], [ -73.933828, 40.696184 ], [ -73.934134, 40.696359 ], [ -73.934797, 40.696737 ], [ -73.935222, 40.696986 ] ] ] } },
{ "type": "Feature", "properties": { "GEOID": "360470433002", "far_gap": 0.69839080459770109, "lot_count": 87 }, "geometry": { "type": "Polygon", "coordinates": [ [ [ -73.917522, 40.698893 ], [ -73.916316, 40.700122 ], [ -73.915565, 40.699693 ], [ -73.914815, 40.699266 ], [ -73.914912, 40.699166 ], [ -73.9161, 40.697953 ], [ -73.916368, 40.69768 ], [ -73.917118, 40.69811 ], [ -73.917872, 40.698537 ], [ -73.917522, 40.698893 ] ] ] } },
{ "type": "Feature", "properties": { "GEOID": "360470423002", "far_gap": 0.88888888888888884, "lot_count": 117 }, "geometry": { "type": "Polygon", "coordinates": [ [ [ -73.930305, 40.698992 ], [ -73.929331, 40.699987 ], [ -73.929035, 40.70029 ], [ -73.927588, 40.701762 ], [ -73.926838, 40.701334 ], [ -73.926083, 40.70091 ], [ -73.925329, 40.700481 ], [ -73.92546, 40.700347 ], [ -73.925539, 40.700267 ], [ -73.926782, 40.699015 ], [ -73.927049, 40.699159 ], [ -73.927532, 40.699439 ], [ -73.927797, 40.699585 ], [ -73.929964, 40.69825 ], [ -73.930262, 40.698529 ], [ -73.930521, 40.698772 ], [ -73.930305, 40.698992 ] ] ] } },
{ "type": "Feature", "properties": { "GEOID": "360470429003", "far_gap": 0.44609756097560971, "lot_count": 82 }, "geometry": { "type": "Polygon", "coordinates": [ [ [ -73.924582, 40.700056 ], [ -73.923133, 40.70153 ], [ -73.92158, 40.703115 ], [ -73.920827, 40.702686 ], [ -73.922384, 40.701102 ], [ -73.923833, 40.699628 ], [ -73.924582, 40.700056 ] ] ] } },
{ "type": "Feature", "properties": { "GEOID": "360470437001", "far_gap": 0.73440476190476189, "lot_count": 84 }, "geometry": { "type": "Polygon", "coordinates": [ [ [ -73.908101, 40.692976 ], [ -73.906545, 40.69456 ], [ -73.9058, 40.694128 ], [ -73.905043, 40.693704 ], [ -73.906599, 40.69212 ], [ -73.907347, 40.692549 ], [ -73.908101, 40.692976 ] ] ] } },
{ "type": "Feature", "properties": { "GEOID": "360470437002", "far_gap": 0.874355828220859, "lot_count": 163 }, "geometry": { "type": "Polygon", "coordinates": [ [ [ -73.911053, 40.692358 ], [ -73.909605, 40.693832 ], [ -73.908853, 40.693405 ], [ -73.908101, 40.692976 ], [ -73.907347, 40.692549 ], [ -73.906599, 40.69212 ], [ -73.908042, 40.690647 ], [ -73.908797, 40.691075 ], [ -73.90955, 40.691503 ], [ -73.910298, 40.69193 ], [ -73.911053, 40.692358 ] ] ] } },
{ "type": "Feature", "properties": { "GEOID": "360470439001", "far_gap": 0.62564356435643564, "lot_count": 202 }, "geometry": { "type": "Polygon", "coordinates": [ [ [ -73.909551, 40.696271 ], [ -73.908508, 40.697334 ], [ -73.908022, 40.697825 ], [ -73.907771, 40.697684 ], [ -73.90757, 40.697572 ], [ -73.907523, 40.697548 ], [ -73.907372, 40.697452 ], [ -73.907275, 40.697399 ], [ -73.90712, 40.697314 ], [ -73.907036, 40.697268 ], [ -73.906927, 40.697208 ], [ -73.906846, 40.697164 ], [ -73.906524, 40.696976 ], [ -73.906263, 40.696832 ], [ -73.906156, 40.696776 ], [ -73.906117, 40.69675 ], [ -73.905771, 40.696549 ], [ -73.905704, 40.696515 ], [ -73.905583, 40.696449 ], [ -73.905401, 40.69635 ], [ -73.905235, 40.696251 ], [ -73.905083, 40.696163 ], [ -73.905011, 40.696122 ], [ -73.904952, 40.696086 ], [ -73.90489, 40.696051 ], [ -73.904803, 40.696008 ], [ -73.904664, 40.695932 ], [ -73.90426, 40.6957 ], [ -73.904804, 40.695148 ], [ -73.904914, 40.695074 ], [ -73.9058, 40.694128 ], [ -73.906545, 40.69456 ], [ -73.907296, 40.694987 ], [ -73.908047, 40.695417 ], [ -73.908799, 40.695845 ], [ -73.909551, 40.696271 ] ] ] } },
{ "type": "Feature", "properties": { "GEOID": "360470439002", "far_gap": 0.69337579617834399, "lot_count": 157 }, "geometry": { "type": "Polygon", "coordinates": [ [ [ -73.912556, 40.697982 ], [ -73.911776, 40.698783 ], [ -73.911024, 40.698351 ], [ -73.910272, 40.69793 ], [ -73.909513, 40.697499 ], [ -73.909251, 40.697767 ], [ -73.908774, 40.698255 ], [ -73.908022, 40.697825 ], [ -73.908508, 40.697334 ], [ -73.909551, 40.696271 ], [ -73.910303, 40.6967 ], [ -73.911049, 40.697126 ], [ -73.911806, 40.697554 ], [ -73.912556, 40.697982 ] ] ] } },
{ "type": "Feature", "properties": { "GEOID": "360470439003", "far_gap": 0.85579439252336453, "lot_count": 107 }, "geometry": { "type": "Polygon", "coordinates": [ [ [ -73.913606, 40.6993 ], [ -73.912569, 40.700358 ], [ -73.911422, 40.701487 ], [ -73.910679, 40.701046 ], [ -73.911808, 40.699938 ], [ -73.911036, 40.699532 ], [ -73.910143, 40.699033 ], [ -73.909533, 40.698675 ], [ -73.908774, 40.698255 ], [ -73.909251, 40.697767 ], [ -73.909513, 40.697499 ], [ -73.910272, 40.69793 ], [ -73.911024, 40.698351 ], [ -73.911776, 40.698783 ], [ -73.912556, 40.697982 ], [ -73.913309, 40.69841 ], [ -73.914061, 40.698838 ], [ -73.913606, 40.6993 ] ] ] } },
{ "type": "Feature", "properties": { "GEOID": "360470441003", "far_gap": 0.61, "lot_count": 108 }, "geometry": { "type": "Polygon", "coordinates": [ [ [ -73.91485, 40.701617 ], [ -73.913644, 40.702799 ], [ -73.914386, 40.703239 ], [ -73.913292, 40.704313 ], [ -73.912549, 40.703873 ], [ -73.911807, 40.703435 ], [ -73.912904, 40.702362 ], [ -73.914088, 40.701198 ], [ -73.91485, 40.701617 ] ] ] } },
{ "type": "Feature", "properties": { "GEOID": "360470443001", "far_gap": 0.68324786324786324, "lot_count": 117 }, "geometry": { "type": "Polygon", "coordinates": [ [ [ -73.916325, 40.702499 ], [ -73.915126, 40.703677 ], [ -73.915868, 40.704114 ], [ -73.914771, 40.705189 ], [ -73.914031, 40.704749 ], [ -73.913292, 40.704313 ], [ -73.914386, 40.703239 ], [ -73.9156, 40.702046 ], [ -73.916325, 40.702499 ] ] ] } },
{ "type": "Feature", "properties": { "GEOID": "360470443004", "far_gap": 0.91245762711864409, "lot_count": 118 }, "geometry": { "type": "Polygon", "coordinates": [ [ [ -73.918504, 40.703858 ], [ -73.91735, 40.704992 ], [ -73.916253, 40.706066 ], [ -73.915513, 40.705626 ], [ -73.914771, 40.705189 ], [ -73.915868, 40.704114 ], [ -73.91705, 40.702953 ], [ -73.917777, 40.703405 ], [ -73.918504, 40.703858 ] ] ] } },
{ "type": "Feature", "properties": { "GEOID": "360470445001", "far_gap": 0.7372727272727273, "lot_count": 154 }, "geometry": { "type": "Polygon", "coordinates": [ [ [ -73.919957, 40.704764 ], [ -73.918833, 40.705867 ], [ -73.917737, 40.706943 ], [ -73.916995, 40.706503 ], [ -73.916253, 40.706066 ], [ -73.91735, 40.704992 ], [ -73.918504, 40.703858 ], [ -73.91923, 40.704312 ], [ -73.919957, 40.704764 ] ] ] } },
{ "type": "Feature", "properties": { "GEOID": "360470447001", "far_gap": 0.024423076923076922, "lot_count": 104 }, "geometry": { "type": "Polygon", "coordinates": [ [ [ -73.923852, 40.707677 ], [ -73.923062, 40.708369 ], [ -73.922862, 40.708546 ], [ -73.922337, 40.709006 ], [ -73.921892, 40.709396 ], [ -73.921435, 40.709129 ], [ -73.920701, 40.708695 ], [ -73.91996, 40.708257 ], [ -73.919222, 40.707815 ], [ -73.920315, 40.706744 ], [ -73.92141, 40.70567 ], [ -73.922136, 40.706124 ], [ -73.922863, 40.706576 ], [ -73.923591, 40.707029 ], [ -73.924169, 40.707394 ], [ -73.923852, 40.707677 ] ] ] } },
{ "type": "Feature", "properties": { "GEOID": "360470401001", "far_gap": 0.89518518518518519, "lot_count": 108 }, "geometry": { "type": "Polygon", "coordinates": [ [ [ -73.913037, 40.684368 ], [ -73.911637, 40.685796 ], [ -73.912389, 40.686224 ], [ -73.91094, 40.687699 ], [ -73.910189, 40.687271 ], [ -73.909439, 40.686845 ], [ -73.910887, 40.685369 ], [ -73.912273, 40.683935 ], [ -73.913037, 40.684368 ] ] ] } },
{ "type": "Feature", "properties": { "GEOID": "360470403003", "far_gap": 0.8695, "lot_count": 160 }, "geometry": { "type": "Polygon", "coordinates": [ [ [ -73.910887, 40.685369 ], [ -73.909439, 40.686845 ], [ -73.908688, 40.686417 ], [ -73.907934, 40.685988 ], [ -73.907183, 40.685561 ], [ -73.908629, 40.684086 ], [ -73.909382, 40.684513 ], [ -73.910132, 40.684939 ], [ -73.910887, 40.685369 ] ] ] } },
{ "type": "Feature", "properties": { "GEOID": "360470415003", "far_gap": 1.0293137254901961, "lot_count": 102 }, "geometry": { "type": "Polygon", "coordinates": [ [ [ -73.917791, 40.69146 ], [ -73.916257, 40.693022 ], [ -73.914808, 40.694497 ], [ -73.914057, 40.694068 ], [ -73.913307, 40.693641 ], [ -73.914754, 40.692166 ], [ -73.915505, 40.692594 ], [ -73.916964, 40.69111 ], [ -73.917791, 40.69146 ] ] ] } },
{ "type": "Feature", "properties": { "GEOID": "360470417003", "far_gap": 1.129156626506024, "lot_count": 83 }, "geometry": { "type": "Polygon", "coordinates": [ [ [ -73.920301, 40.692485 ], [ -73.918512, 40.694304 ], [ -73.917071, 40.695782 ], [ -73.916313, 40.695351 ], [ -73.917761, 40.693877 ], [ -73.919459, 40.692149 ], [ -73.920301, 40.692485 ] ] ] } },
{ "type": "Feature", "properties": { "GEOID": "360470427004", "far_gap": 0.91938053097345129, "lot_count": 113 }, "geometry": { "type": "Polygon", "coordinates": [ [ [ -73.931155, 40.703773 ], [ -73.930237, 40.704131 ], [ -73.9298, 40.704305 ], [ -73.928738, 40.704717 ], [ -73.928109, 40.704964 ], [ -73.926578, 40.705557 ], [ -73.926089, 40.70568 ], [ -73.927644, 40.704092 ], [ -73.929091, 40.70262 ], [ -73.929843, 40.703047 ], [ -73.930594, 40.703473 ], [ -73.931155, 40.703773 ] ] ] } },
{ "type": "Feature", "properties": { "GEOID": "360470443002", "far_gap": 0.7172972972972973, "lot_count": 111 }, "geometry": { "type": "Polygon", "coordinates": [ [ [ -73.918572, 40.701404 ], [ -73.91705, 40.702953 ], [ -73.915868, 40.704114 ], [ -73.915126, 40.703677 ], [ -73.916325, 40.702499 ], [ -73.9156, 40.702046 ], [ -73.917068, 40.700548 ], [ -73.917819, 40.700976 ], [ -73.918572, 40.701404 ] ] ] } },
{ "type": "Feature", "properties": { "GEOID": "360470389001", "far_gap": 0.75747826086956527, "lot_count": 115 }, "geometry": { "type": "Polygon", "coordinates": [ [ [ -73.941931, 40.700725 ], [ -73.94042, 40.701077 ], [ -73.939501, 40.701281 ], [ -73.938365, 40.701545 ], [ -73.93763, 40.701739 ], [ -73.936982, 40.70191 ], [ -73.936729, 40.701303 ], [ -73.93644, 40.700625 ], [ -73.936366, 40.700485 ], [ -73.936066, 40.700011 ], [ -73.93547, 40.699071 ], [ -73.936216, 40.699409 ], [ -73.936963, 40.699833 ], [ -73.937728, 40.700249 ], [ -73.938902, 40.699037 ], [ -73.93969, 40.699456 ], [ -73.94042, 40.699874 ], [ -73.941149, 40.700281 ], [ -73.941931, 40.700725 ] ] ] } },
{ "type": "Feature", "properties": { "GEOID": "360470389002", "far_gap": 0.3229885057471264, "lot_count": 87 }, "geometry": { "type": "Polygon", "coordinates": [ [ [ -73.938902, 40.699037 ], [ -73.937728, 40.700249 ], [ -73.936963, 40.699833 ], [ -73.936216, 40.699409 ], [ -73.93547, 40.699071 ], [ -73.93676, 40.697831 ], [ -73.937391, 40.698186 ], [ -73.937773, 40.698405 ], [ -73.938177, 40.698641 ], [ -73.938568, 40.698848 ], [ -73.938902, 40.699037 ] ] ] } },
{ "type": "Feature", "properties": { "GEOID": "360470389003", "far_gap": 0.73534653465346533, "lot_count": 101 }, "geometry": { "type": "Polygon", "coordinates": [ [ [ -73.93676, 40.697831 ], [ -73.93547, 40.699071 ], [ -73.934762, 40.6987 ], [ -73.933987, 40.698264 ], [ -73.933696, 40.698104 ], [ -73.933246, 40.697855 ], [ -73.932267, 40.697315 ], [ -73.932835, 40.697247 ], [ -73.934008, 40.697118 ], [ -73.935222, 40.696986 ], [ -73.936006, 40.697406 ], [ -73.936388, 40.697616 ], [ -73.93676, 40.697831 ] ] ] } },
{ "type": "Feature", "properties": { "GEOID": "360470391001", "far_gap": 1.805609756097561, "lot_count": 83 }, "geometry": { "type": "Polygon", "coordinates": [ [ [ -73.936982, 40.70191 ], [ -73.935336, 40.702315 ], [ -73.933951, 40.702674 ], [ -73.93353, 40.701716 ], [ -73.93314, 40.700827 ], [ -73.932781, 40.700059 ], [ -73.93235, 40.699814 ], [ -73.934009, 40.699109 ], [ -73.934731, 40.698799 ], [ -73.934762, 40.6987 ], [ -73.93547, 40.699071 ], [ -73.936066, 40.700011 ], [ -73.936366, 40.700485 ], [ -73.93644, 40.700625 ], [ -73.936729, 40.701303 ], [ -73.936982, 40.70191 ] ] ] } },
{ "type": "Feature", "properties": { "GEOID": "360470393001", "far_gap": 0.974765625, "lot_count": 128 }, "geometry": { "type": "Polygon", "coordinates": [ [ [ -73.932267, 40.697315 ], [ -73.931338, 40.69742 ], [ -73.931223, 40.697433 ], [ -73.929615, 40.697607 ], [ -73.929316, 40.69764 ], [ -73.928833, 40.697186 ], [ -73.928231, 40.696666 ], [ -73.92725, 40.696142 ], [ -73.926499, 40.695712 ], [ -73.927497, 40.694697 ], [ -73.928259, 40.695111 ], [ -73.928431, 40.695205 ], [ -73.929235, 40.695643 ], [ -73.929584, 40.69584 ], [ -73.929894, 40.696004 ], [ -73.930348, 40.696254 ], [ -73.9305, 40.696337 ], [ -73.931084, 40.696659 ], [ -73.931842, 40.697077 ], [ -73.932267, 40.697315 ] ] ] } },
{ "type": "Feature", "properties": { "GEOID": "360470395001", "far_gap": 0.83574803149606303, "lot_count": 127 }, "geometry": { "type": "Polygon", "coordinates": [ [ [ -73.925206, 40.693455 ], [ -73.924249, 40.694429 ], [ -73.923498, 40.694001 ], [ -73.922748, 40.693573 ], [ -73.921994, 40.693144 ], [ -73.921154, 40.692796 ], [ -73.92128, 40.692797 ], [ -73.92223, 40.691823 ], [ -73.922919, 40.692213 ], [ -73.923672, 40.692626 ], [ -73.924185, 40.692901 ], [ -73.924439, 40.693041 ], [ -73.924951, 40.693315 ], [ -73.925206, 40.693455 ] ] ] } },
{ "type": "Feature", "properties": { "GEOID": "360470395002", "far_gap": 1.0099425287356321, "lot_count": 174 }, "geometry": { "type": "Polygon", "coordinates": [ [ [ -73.927071, 40.692346 ], [ -73.925715, 40.693724 ], [ -73.925206, 40.693455 ], [ -73.924951, 40.693315 ], [ -73.924439, 40.693041 ], [ -73.924185, 40.692901 ], [ -73.923672, 40.692626 ], [ -73.922919, 40.692213 ], [ -73.92223, 40.691823 ], [ -73.92295, 40.6911 ], [ -73.923644, 40.690399 ], [ -73.924287, 40.690768 ], [ -73.924392, 40.690831 ], [ -73.925365, 40.691367 ], [ -73.92556, 40.691491 ], [ -73.926316, 40.691929 ], [ -73.92645, 40.692002 ], [ -73.927071, 40.692346 ] ] ] } },
{ "type": "Feature", "properties": { "GEOID": "360470395003", "far_gap": 0.88822033898305086, "lot_count": 118 }, "geometry": { "type": "Polygon", "coordinates": [ [ [ -73.927811, 40.692774 ], [ -73.926481, 40.694141 ], [ -73.926736, 40.69428 ], [ -73.927227, 40.694548 ], [ -73.927497, 40.694697 ], [ -73.926499, 40.695712 ], [ -73.92575, 40.695285 ], [ -73.924995, 40.694855 ], [ -73.924249, 40.694429 ], [ -73.925206, 40.693455 ], [ -73.925715, 40.693724 ], [ -73.927071, 40.692346 ], [ -73.927507, 40.692604 ], [ -73.927811, 40.692774 ] ] ] } },
{ "type": "Feature", "properties": { "GEOID": "360470397002", "far_gap": 0.92792592592592593, "lot_count": 135 }, "geometry": { "type": "Polygon", "coordinates": [ [ [ -73.92055, 40.688641 ], [ -73.919153, 40.690076 ], [ -73.9184, 40.689646 ], [ -73.917649, 40.689218 ], [ -73.916899, 40.68879 ], [ -73.918294, 40.687357 ], [ -73.918783, 40.687626 ], [ -73.919061, 40.687784 ], [ -73.91981, 40.688211 ], [ -73.92055, 40.688641 ] ] ] } },
{ "type": "Feature", "properties": { "GEOID": "360470399002", "far_gap": 0.99007194244604324, "lot_count": 139 }, "geometry": { "type": "Polygon", "coordinates": [ [ [ -73.919906, 40.690499 ], [ -73.91862, 40.691808 ], [ -73.917791, 40.69146 ], [ -73.916964, 40.69111 ], [ -73.916199, 40.690692 ], [ -73.91545, 40.690264 ], [ -73.916899, 40.68879 ], [ -73.917649, 40.689218 ], [ -73.9184, 40.689646 ], [ -73.919153, 40.690076 ], [ -73.919906, 40.690499 ] ] ] } }
]
}
